<?xml version="1.0" encoding="UTF-8"?>
<ndm xmlns:xsi="http://www.w3.org/2001/XMLSchema-instance" xsi:noNamespaceSchemaLocation="https://sanaregistry.org/r/ndmxml_unqualified/ndmxml-2.0.0-master-2.0.xsd">
<omm id="CCSDS_OMM_VERS" version="2.0">
<header><CREATION_DATE/><ORIGINATOR/></header><body><segment><metadata><OBJECT_NAME>ORBCOMM FM103</OBJECT_NAME><OBJECT_ID>2014-040F</OBJECT_ID><CENTER_NAME>EARTH</CENTER_NAME><REF_FRAME>TEME</REF_FRAME><TIME_SYSTEM>UTC</TIME_SYSTEM><MEAN_ELEMENT_THEORY>SGP4</MEAN_ELEMENT_THEORY></metadata><data><meanElements><EPOCH>2024-11-06T10:44:38.545440</EPOCH><MEAN_MOTION>14.57382566</MEAN_MOTION><ECCENTRICITY>.0002623</ECCENTRICITY><INCLINATION>47.0060</INCLINATION><RA_OF_ASC_NODE>349.1567</RA_OF_ASC_NODE><ARG_OF_PERICENTER>320.2706</ARG_OF_PERICENTER><MEAN_ANOMALY>39.7987</MEAN_ANOMALY></meanElements><tleParameters><EPHEMERIS_TYPE>0</EPHEMERIS_TYPE><CLASSIFICATION_TYPE>U</CLASSIFICATION_TYPE><NORAD_CAT_ID>40091</NORAD_CAT_ID><ELEMENT_SET_NO>999</ELEMENT_SET_NO><REV_AT_EPOCH>54866</REV_AT_EPOCH><BSTAR>.82063E-3</BSTAR><MEAN_MOTION_DOT>.3589E-4</MEAN_MOTION_DOT><MEAN_MOTION_DDOT>0</MEAN_MOTION_DDOT></tleParameters></data></segment></body></omm>
<omm id="CCSDS_OMM_VERS" version="2.0">
<header><CREATION_DATE/><ORIGINATOR/></header><body><segment><metadata><OBJECT_NAME>ORBCOMM FM114</OBJECT_NAME><OBJECT_ID>2015-081A</OBJECT_ID><CENTER_NAME>EARTH</CENTER_NAME><REF_FRAME>TEME</REF_FRAME><TIME_SYSTEM>UTC</TIME_SYSTEM><MEAN_ELEMENT_THEORY>SGP4</MEAN_ELEMENT_THEORY></metadata><data><meanElements><EPOCH>2024-11-06T03:13:35.021568</EPOCH><MEAN_MOTION>14.57391263</MEAN_MOTION><ECCENTRICITY>.0002098</ECCENTRICITY><INCLINATION>47.0018</INCLINATION><RA_OF_ASC_NODE>259.8247</RA_OF_ASC_NODE><ARG_OF_PERICENTER>33.9588</ARG_OF_PERICENTER><MEAN_ANOMALY>326.1431</MEAN_ANOMALY></meanElements><tleParameters><EPHEMERIS_TYPE>0</EPHEMERIS_TYPE><CLASSIFICATION_TYPE>U</CLASSIFICATION_TYPE><NORAD_CAT_ID>41179</NORAD_CAT_ID><ELEMENT_SET_NO>999</ELEMENT_SET_NO><REV_AT_EPOCH>47197</REV_AT_EPOCH><BSTAR>.87863E-3</BSTAR><MEAN_MOTION_DOT>.3856E-4</MEAN_MOTION_DOT><MEAN_MOTION_DDOT>0</MEAN_MOTION_DDOT></tleParameters></data></segment></body></omm>
<omm id="CCSDS_OMM_VERS" version="2.0">
<header><CREATION_DATE/><ORIGINATOR/></header><body><segment><metadata><OBJECT_NAME>ORBCOMM FM119</OBJECT_NAME><OBJECT_ID>2015-081B</OBJECT_ID><CENTER_NAME>EARTH</CENTER_NAME><REF_FRAME>TEME</REF_FRAME><TIME_SYSTEM>UTC</TIME_SYSTEM><MEAN_ELEMENT_THEORY>SGP4</MEAN_ELEMENT_THEORY></metadata><data><meanElements><EPOCH>2024-11-06T07:35:48.970464</EPOCH><MEAN_MOTION>14.57361001</MEAN_MOTION><ECCENTRICITY>.0000987</ECCENTRICITY><INCLINATION>46.9980</INCLINATION><RA_OF_ASC_NODE>168.1919</RA_OF_ASC_NODE><ARG_OF_PERICENTER>142.5361</ARG_OF_PERICENTER><MEAN_ANOMALY>217.5593</MEAN_ANOMALY></meanElements><tleParameters><EPHEMERIS_TYPE>0</EPHEMERIS_TYPE><CLASSIFICATION_TYPE>U</CLASSIFICATION_TYPE><NORAD_CAT_ID>41180</NORAD_CAT_ID><ELEMENT_SET_NO>999</ELEMENT_SET_NO><REV_AT_EPOCH>47320</REV_AT_EPOCH><BSTAR>.74793E-3</BSTAR><MEAN_MOTION_DOT>.3255E-4</MEAN_MOTION_DOT><MEAN_MOTION_DDOT>0</MEAN_MOTION_DDOT></tleParameters></data></segment></body></omm>
<omm id="CCSDS_OMM_VERS" version="2.0">
<header><CREATION_DATE/><ORIGINATOR/></header><body><segment><metadata><OBJECT_NAME>ORBCOMM FM105</OBJECT_NAME><OBJECT_ID>2015-081C</OBJECT_ID><CENTER_NAME>EARTH</CENTER_NAME><REF_FRAME>TEME</REF_FRAME><TIME_SYSTEM>UTC</TIME_SYSTEM><MEAN_ELEMENT_THEORY>SGP4</MEAN_ELEMENT_THEORY></metadata><data><meanElements><EPOCH>2024-11-06T12:21:02.324736</EPOCH><MEAN_MOTION>14.44809620</MEAN_MOTION><ECCENTRICITY>.0001252</ECCENTRICITY><INCLINATION>46.9989</INCLINATION><RA_OF_ASC_NODE>150.8419</RA_OF_ASC_NODE><ARG_OF_PERICENTER>30.2056</ARG_OF_PERICENTER><MEAN_ANOMALY>329.8896</MEAN_ANOMALY></meanElements><tleParameters><EPHEMERIS_TYPE>0</EPHEMERIS_TYPE><CLASSIFICATION_TYPE>U</CLASSIFICATION_TYPE><NORAD_CAT_ID>41181</NORAD_CAT_ID><ELEMENT_SET_NO>999</ELEMENT_SET_NO><REV_AT_EPOCH>46865</REV_AT_EPOCH><BSTAR>.52528E-3</BSTAR><MEAN_MOTION_DOT>.1685E-4</MEAN_MOTION_DOT><MEAN_MOTION_DDOT>0</MEAN_MOTION_DDOT></tleParameters></data></segment></body></omm>
<omm id="CCSDS_OMM_VERS" version="2.0">
<header><CREATION_DATE/><ORIGINATOR/></header><body><segment><metadata><OBJECT_NAME>ORBCOMM FM110</OBJECT_NAME><OBJECT_ID>2015-081D</OBJECT_ID><CENTER_NAME>EARTH</CENTER_NAME><REF_FRAME>TEME</REF_FRAME><TIME_SYSTEM>UTC</TIME_SYSTEM><MEAN_ELEMENT_THEORY>SGP4</MEAN_ELEMENT_THEORY></metadata><data><meanElements><EPOCH>2024-11-05T13:29:47.994720</EPOCH><MEAN_MOTION>14.57396792</MEAN_MOTION><ECCENTRICITY>.0001304</ECCENTRICITY><INCLINATION>47.0008</INCLINATION><RA_OF_ASC_NODE>261.9067</RA_OF_ASC_NODE><ARG_OF_PERICENTER>216.5144</ARG_OF_PERICENTER><MEAN_ANOMALY>143.5653</MEAN_ANOMALY></meanElements><tleParameters><EPHEMERIS_TYPE>0</EPHEMERIS_TYPE><CLASSIFICATION_TYPE>U</CLASSIFICATION_TYPE><NORAD_CAT_ID>41182</NORAD_CAT_ID><ELEMENT_SET_NO>999</ELEMENT_SET_NO><REV_AT_EPOCH>47171</REV_AT_EPOCH><BSTAR>.11098E-2</BSTAR><MEAN_MOTION_DOT>.4916E-4</MEAN_MOTION_DOT><MEAN_MOTION_DDOT>0</MEAN_MOTION_DDOT></tleParameters></data></segment></body></omm>
<omm id="CCSDS_OMM_VERS" version="2.0">
<header><CREATION_DATE/><ORIGINATOR/></header><body><segment><metadata><OBJECT_NAME>ORBCOMM FM118</OBJECT_NAME><OBJECT_ID>2015-081E</OBJECT_ID><CENTER_NAME>EARTH</CENTER_NAME><REF_FRAME>TEME</REF_FRAME><TIME_SYSTEM>UTC</TIME_SYSTEM><MEAN_ELEMENT_THEORY>SGP4</MEAN_ELEMENT_THEORY></metadata><data><meanElements><EPOCH>2024-11-05T06:23:16.441728</EPOCH><MEAN_MOTION>14.57364845</MEAN_MOTION><ECCENTRICITY>.0001697</ECCENTRICITY><INCLINATION>47.0032</INCLINATION><RA_OF_ASC_NODE>263.6541</RA_OF_ASC_NODE><ARG_OF_PERICENTER>212.3313</ARG_OF_PERICENTER><MEAN_ANOMALY>147.7468</MEAN_ANOMALY></meanElements><tleParameters><EPHEMERIS_TYPE>0</EPHEMERIS_TYPE><CLASSIFICATION_TYPE>U</CLASSIFICATION_TYPE><NORAD_CAT_ID>41183</NORAD_CAT_ID><ELEMENT_SET_NO>999</ELEMENT_SET_NO><REV_AT_EPOCH>47177</REV_AT_EPOCH><BSTAR>.12331E-2</BSTAR><MEAN_MOTION_DOT>.5478E-4</MEAN_MOTION_DOT><MEAN_MOTION_DDOT>0</MEAN_MOTION_DDOT></tleParameters></data></segment></body></omm>
<omm id="CCSDS_OMM_VERS" version="2.0">
<header><CREATION_DATE/><ORIGINATOR/></header><body><segment><metadata><OBJECT_NAME>ORBCOMM FM112</OBJECT_NAME><OBJECT_ID>2015-081F</OBJECT_ID><CENTER_NAME>EARTH</CENTER_NAME><REF_FRAME>TEME</REF_FRAME><TIME_SYSTEM>UTC</TIME_SYSTEM><MEAN_ELEMENT_THEORY>SGP4</MEAN_ELEMENT_THEORY></metadata><data><meanElements><EPOCH>2024-11-06T07:03:27.874368</EPOCH><MEAN_MOTION>14.57382844</MEAN_MOTION><ECCENTRICITY>.0001165</ECCENTRICITY><INCLINATION>46.9964</INCLINATION><RA_OF_ASC_NODE>167.4913</RA_OF_ASC_NODE><ARG_OF_PERICENTER>108.1388</ARG_OF_PERICENTER><MEAN_ANOMALY>251.9624</MEAN_ANOMALY></meanElements><tleParameters><EPHEMERIS_TYPE>0</EPHEMERIS_TYPE><CLASSIFICATION_TYPE>U</CLASSIFICATION_TYPE><NORAD_CAT_ID>41184</NORAD_CAT_ID><ELEMENT_SET_NO>999</ELEMENT_SET_NO><REV_AT_EPOCH>47319</REV_AT_EPOCH><BSTAR>.82014E-3</BSTAR><MEAN_MOTION_DOT>.3587E-4</MEAN_MOTION_DOT><MEAN_MOTION_DDOT>0</MEAN_MOTION_DDOT></tleParameters></data></segment></body></omm>
<omm id="CCSDS_OMM_VERS" version="2.0">
<header><CREATION_DATE/><ORIGINATOR/></header><body><segment><metadata><OBJECT_NAME>ORBCOMM FM113</OBJECT_NAME><OBJECT_ID>2015-081G</OBJECT_ID><CENTER_NAME>EARTH</CENTER_NAME><REF_FRAME>TEME</REF_FRAME><TIME_SYSTEM>UTC</TIME_SYSTEM><MEAN_ELEMENT_THEORY>SGP4</MEAN_ELEMENT_THEORY></metadata><data><meanElements><EPOCH>2024-11-06T01:34:44.915232</EPOCH><MEAN_MOTION>14.57362348</MEAN_MOTION><ECCENTRICITY>.0001208</ECCENTRICITY><INCLINATION>46.9983</INCLINATION><RA_OF_ASC_NODE>168.8655</RA_OF_ASC_NODE><ARG_OF_PERICENTER>140.2926</ARG_OF_PERICENTER><MEAN_ANOMALY>219.8048</MEAN_ANOMALY></meanElements><tleParameters><EPHEMERIS_TYPE>0</EPHEMERIS_TYPE><CLASSIFICATION_TYPE>U</CLASSIFICATION_TYPE><NORAD_CAT_ID>41185</NORAD_CAT_ID><ELEMENT_SET_NO>999</ELEMENT_SET_NO><REV_AT_EPOCH>47316</REV_AT_EPOCH><BSTAR>.79888E-3</BSTAR><MEAN_MOTION_DOT>.3488E-4</MEAN_MOTION_DOT><MEAN_MOTION_DDOT>0</MEAN_MOTION_DDOT></tleParameters></data></segment></body></omm>

</ndm>
