ORBCOMM FM103           
1 40091U 14040F   24311.44766835  .00003589  00000+0  82063-3 0  9993
2 40091  47.0060 349.1567 0002623 320.2706  39.7987 14.57382566548660
ORBCOMM FM114           
1 41179U 15081A   24311.13443312  .00003856  00000+0  87863-3 0  9995
2 41179  47.0018 259.8247 0002098  33.9588 326.1431 14.57391263471975
ORBCOMM FM119           
1 41180U 15081B   24311.31653901  .00003255  00000+0  74793-3 0  9995
2 41180  46.9980 168.1919 0000987 142.5361 217.5593 14.57361001473209
ORBCOMM FM105           
1 41181U 15081C   24311.51461024  .00001685  00000+0  52528-3 0  9998
2 41181  46.9989 150.8419 0001252  30.2056 329.8896 14.44809620468658
ORBCOMM FM110           
1 41182U 15081D   24310.56236105  .00004916  00000+0  11098-2 0  9999
2 41182  47.0008 261.9067 0001304 216.5144 143.5653 14.57396792471719
ORBCOMM FM118           
1 41183U 15081E   24310.26616252  .00005478  00000+0  12331-2 0  9997
2 41183  47.0032 263.6541 0001697 212.3313 147.7468 14.57364845471770
ORBCOMM FM112           
1 41184U 15081F   24311.29407262  .00003587  00000+0  82014-3 0  9996
2 41184  46.9964 167.4913 0001165 108.1388 251.9624 14.57382844473190
ORBCOMM FM113           
1 41185U 15081G   24311.06579763  .00003488  00000+0  79888-3 0  9993
2 41185  46.9983 168.8655 0001208 140.2926 219.8048 14.57362348473160
